NORAD_CAT_ID,OBJECT_NAME,OBJECT_TYPE,EPOCH,MEAN_MOTION,ECCENTRICITY,INCLINATION,RA_OF_ASC_NODE,ARG_OF_PERICENTER,MEAN_ANOMALY,BSTAR,MEAN_MOTION_DOT,MEAN_MOTION_DDOT,TLE_LINE0,TLE_LINE1,TLE_LINE2,SEMIMAJOR_AXIS,PERIOD,APOGEE,PERIGEE,DECAYED
53979.0,STARLINK-5123,PAYLOAD,2023-08-06 03:03:35,15.08858439,0.0001331,53.2158,148.3951,77.8149,282.2993,0.0003964,6.03e-05,0.0,0 STARLINK-5123,1 53979U 22125R   23218.12749330  .00006030  00000-0  39640-3 0  9994,2 53979  53.2158 148.3951 0001331  77.8149 282.2993 15.08858439 46561,6917.824,95.436,540.61,538.768,0.0
53979.0,STARLINK-5123,PAYLOAD,2023-08-06 12:35:54,15.0883172,0.0001643,53.2166,146.6111,93.9127,266.2053,-0.00024504,-4.185e-05,0.0,0 STARLINK-5123,1 53979U 22125R   23218.52494166 -.00004185  00000-0 -24504-3 0  9996,2 53979  53.2166 146.6111 0001643  93.9127 266.2053 15.08831720 46620,6917.906,95.438,540.907,538.634,0.0
53979.0,STARLINK-5123,PAYLOAD,2023-08-07 01:19:00,15.08819673,0.000124,53.2157,144.2331,99.5928,260.5205,-0.00034265,-5.734e-05,0.0,0 STARLINK-5123,1 53979U 22125R   23219.05487135 -.00005734  00000-0 -34265-3 0  9999,2 53979  53.2157 144.2331 0001240  99.5928 260.5205 15.08819673 46700,6917.943,95.439,540.665,538.95,0.0
53979.0,STARLINK-5123,PAYLOAD,2023-08-07 18:48:15,15.08832266,0.0001178,53.2156,140.9639,87.3217,272.791,0.00019172,2.764e-05,0.0,0 STARLINK-5123,1 53979U 22125R   23219.78351701  .00002764  00000-0  19172-3 0  9996,2 53979  53.2156 140.9639 0001178  87.3217 272.7910 15.08832266 46812,6917.904,95.438,540.584,538.954,0.0
53979.0,STARLINK-5123,PAYLOAD,2023-08-08 04:20:34,15.08854308,0.0001175,53.2152,139.1797,89.2458,270.8669,0.0013117,0.00020657,0.0,0 STARLINK-5123,1 53979U 22125R   23220.18095798  .00020657  00000-0  13117-2 0  9996,2 53979  53.2152 139.1797 0001175  89.2458 270.8669 15.08854308 46875,6917.837,95.437,540.515,538.889,0.0
53979.0,STARLINK-5123,PAYLOAD,2023-08-08 18:39:02,15.08865999,0.0001188,53.2143,136.5044,84.8113,275.3015,0.0009145,0.00014307,0.0,0 STARLINK-5123,1 53979U 22125R   23220.77711175  .00014307  00000-0  91450-3 0  9997,2 53979  53.2143 136.5044 0001188  84.8113 275.3015 15.08865999 46967,6917.801,95.436,540.488,538.844,0.0
53979.0,STARLINK-5123,PAYLOAD,2023-08-10 02:26:44,15.08845049,7.67e-05,53.2142,130.5565,181.6257,178.4733,0.00035098,5.303e-05,0.0,0 STARLINK-5123,1 53979U 22125R   23222.10189916  .00005303  00000-0  35098-3 0  9990,2 53979  53.2142 130.5565 0000767 181.6257 178.4733 15.08845049 47162,6917.865,95.437,540.261,539.199,0.0
53979.0,STARLINK-5123,PAYLOAD,2023-08-10 18:20:36,15.08839261,0.0001257,53.2146,127.5835,83.8389,276.2747,0.00022429,3.283e-05,0.0,0 STARLINK-5123,1 53979U 22125R   23222.76430781  .00003283  00000-0  22429-3 0  9990,2 53979  53.2146 127.5835 0001257  83.8389 276.2747 15.08839261 47268,6917.883,95.438,540.617,538.878,0.0
53979.0,STARLINK-5123,PAYLOAD,2023-08-11 02:17:31,15.0884573,0.0001392,53.2139,126.0969,86.6688,273.4463,0.00023692,3.485e-05,0.0,0 STARLINK-5123,1 53979U 22125R   23223.09550150  .00003485  00000-0  23692-3 0  9997,2 53979  53.2139 126.0969 0001392  86.6688 273.4463 15.08845730 47313,6917.863,95.437,540.691,538.765,0.0
53979.0,STARLINK-5123,PAYLOAD,2023-08-11 18:11:23,15.08837232,0.0001362,53.2141,123.1234,90.2784,269.8364,0.00010393,1.366e-05,0.0,0 STARLINK-5123,1 53979U 22125R   23223.75790962  .00001366  00000-0  10393-3 0  9997,2 53979  53.2141 123.1234 0001362  90.2784 269.8364 15.08837232 47412,6917.889,95.438,540.696,538.812,0.0
53979.0,STARLINK-5123,PAYLOAD,2023-08-12 03:43:41,15.08850588,0.0001324,53.2155,121.3394,88.4843,271.6301,0.00035192,5.319e-05,0.0,0 STARLINK-5123,1 53979U 22125R   23224.15534530  .00005319  00000-0  35192-3 0  9995,2 53979  53.2155 121.3394 0001324  88.4843 271.6301 15.08850588 47474,6917.848,95.437,540.629,538.797,0.0
53979.0,STARLINK-5123,PAYLOAD,2023-08-12 16:26:47,15.08842917,0.0001439,53.2145,118.9598,89.6873,270.4284,0.00025581,3.786e-05,0.0,0 STARLINK-5123,1 53979U 22125R   23224.68526835  .00003786  00000-0  25581-3 0  9999,2 53979  53.2145 118.9598 0001439  89.6873 270.4284 15.08842917 47557,6917.871,95.437,540.732,538.741,0.0
53979.0,STARLINK-5123,PAYLOAD,2023-08-14 01:49:53,15.08843587,0.0001371,53.2153,112.7148,95.1664,264.9485,0.00019172,2.765e-05,0.0,0 STARLINK-5123,1 53979U 22125R   23226.07631060  .00002765  00000-0  19172-3 0  9996,2 53979  53.2153 112.7148 0001371  95.1664 264.9485 15.08843587 47762,6917.869,95.437,540.683,538.786,0.0
53979.0,STARLINK-5123,PAYLOAD,2023-08-15 01:40:40,15.08844056,0.0001501,53.2175,108.2532,83.4173,276.699,0.00014903,2.085e-05,0.0,0 STARLINK-5123,1 53979U 22125R   23227.06991326  .00002085  00000-0  14903-3 0  9992,2 53979  53.2175 108.2532 0001501  83.4173 276.6990 15.08844056 47913,6917.868,95.437,540.771,538.695,0.0
53979.0,STARLINK-5123,PAYLOAD,2023-08-17 01:22:14,15.08839963,0.0001365,53.2167,99.3321,90.5748,269.5401,3.3306e-05,2.42e-06,0.0,0 STARLINK-5123,1 53979U 22125R   23229.05711453  .00000242  00000-0  33306-4 0  9996,2 53979  53.2167  99.3321 0001365  90.5748 269.5401 15.08839963 48218,6917.881,95.438,540.69,538.801,0.0
53979.0,STARLINK-5123,PAYLOAD,2023-08-17 23:37:38,15.08848508,0.0001574,53.2144,95.1718,91.7352,268.382,-2.8222e-05,-7.37e-06,0.0,0 STARLINK-5123,1 53979U 22125R   23229.98446977 -.00000737  00000-0 -28222-4 0  9996,2 53979  53.2144  95.1718 0001574  91.7352 268.3820 15.08848508 48355,6917.854,95.437,540.808,538.631,0.0
53979.0,STARLINK-5123,PAYLOAD,2023-08-18 15:31:30,15.08834457,0.0001421,53.215,92.1971,94.7062,265.4093,2.9767e-05,1.86e-06,0.0,0 STARLINK-5123,1 53979U 22125R   23230.64687791  .00000186  00000-0  29767-4 0  9993,2 53979  53.2150  92.1971 0001421  94.7062 265.4093 15.08834457 48451,6917.897,95.438,540.745,538.779,0.0
53979.0,STARLINK-5123,PAYLOAD,2023-08-20 00:54:36,15.08838419,0.0001431,53.2141,85.9514,91.0822,269.0334,4.8328e-05,4.81e-06,0.0,0 STARLINK-5123,1 53979U 22125R   23232.03791917  .00000481  00000-0  48328-4 0  9996,2 53979  53.2141  85.9514 0001431  91.0822 269.0334 15.08838419 48662,6917.885,95.438,540.74,538.76,0.0
53979.0,STARLINK-5123,PAYLOAD,2023-08-20 23:09:59,15.08854384,0.0001043,53.2151,81.7881,83.1341,276.977,-9.9122e-05,-1.866e-05,0.0,0 STARLINK-5123,1 53979U 22125R   23232.96527101 -.00001866  00000-0 -99122-4 0  9998,2 53979  53.2151  81.7881 0001043  83.1341 276.9770 15.08854384 48807,6917.836,95.437,540.423,538.98,0.0
53979.0,STARLINK-5123,PAYLOAD,2023-08-21 07:06:56,15.08831838,0.0001512,53.2155,80.3018,91.2526,268.864,5.6035e-06,-1.99e-06,0.0,0 STARLINK-5123,1 53979U 22125R   23233.29648477 -.00000199  00000-0  56035-5 0  9999,2 53979  53.2155  80.3018 0001512  91.2526 268.8640 15.08831838 48854,6917.905,95.438,540.816,538.724,0.0
53979.0,STARLINK-5123,PAYLOAD,2023-08-21 23:00:47,15.08846583,0.0001312,53.2158,77.3279,92.1364,267.9779,0.0001992,2.884e-05,0.0,0 STARLINK-5123,1 53979U 22125R   23233.95887801  .00002884  00000-0  19920-3 0  9990,2 53979  53.2158  77.3279 0001312  92.1364 267.9779 15.08846583 48957,6917.86,95.437,540.633,538.818,0.0
53979.0,STARLINK-5123,PAYLOAD,2023-08-22 13:19:15,15.08841583,0.0001336,53.2159,74.6523,86.4562,273.6583,0.00012532,1.707e-05,0.0,0 STARLINK-5123,1 53979U 22125R   23234.55504083  .00001707  00000-0  12532-3 0  9990,2 53979  53.2159  74.6523 0001336  86.4562 273.6583 15.08841583 49045,6917.876,95.437,540.665,538.816,0.0
53979.0,STARLINK-5123,PAYLOAD,2023-08-24 16:11:37,15.08808825,0.0001681,53.2164,65.1351,91.6451,268.4734,0.0008415,0.00013118,0.0,0 STARLINK-5123,1 53979U 22125R   23236.67474028  .00013118  00000-0  84150-3 0  9994,2 53979  53.2164  65.1351 0001681  91.6451 268.4734 15.08808825 49360,6917.976,95.44,541.004,538.678,0.0
53979.0,STARLINK-5123,PAYLOAD,2023-08-24 22:33:08,15.08842754,0.0001339,53.2164,63.9452,92.1666,267.948,9.3483e-05,1.2e-05,0.0,0 STARLINK-5123,1 53979U 22125R   23236.93968225  .00001200  00000-0  93483-4 0  9999,2 53979  53.2164  63.9452 0001339  92.1666 267.9480 15.08842754 49408,6917.872,95.437,540.663,538.811,0.0
53979.0,STARLINK-5123,PAYLOAD,2023-08-25 19:13:09,15.08846184,0.0001285,53.2166,60.0792,85.9563,274.1576,0.00013954,1.934e-05,0.0,0 STARLINK-5123,1 53979U 22125R   23237.80079997  .00001934  00000-0  13954-3 0  9993,2 53979  53.2166  60.0792 0001285  85.9563 274.1576 15.08846184 49464,6917.861,95.437,540.615,538.838,0.0
53979.0,STARLINK-5123,PAYLOAD,2023-08-26 12:42:23,15.08835938,0.0001755,53.2178,56.8036,148.4348,211.675,1.7138e-05,-1.5e-07,0.0,0 STARLINK-5123,1 53979U 22125R   23238.52944229 -.00000015  00000-0  17138-4 0  9991,2 53979  53.2178  56.8036 0001755 148.4348 211.6750 15.08835938 49576,6917.893,95.438,540.972,538.544,0.0
53979.0,STARLINK-5123,PAYLOAD,2023-08-26 17:28:33,15.08841404,0.0001355,53.2165,55.9157,104.3765,255.7378,6.5099e-05,7.48e-06,0.0,0 STARLINK-5123,1 53979U 22125R   23238.72816243  .00000748  00000-0  65099-4 0  9998,2 53979  53.2165  55.9157 0001355 104.3765 255.7378 15.08841404 49677,6917.876,95.437,540.678,538.804,0.0
53979.0,STARLINK-5123,PAYLOAD,2023-08-27 18:54:43,15.08841688,0.0001222,53.2167,51.1596,85.5461,274.5671,5.0059e-05,5.09e-06,0.0,0 STARLINK-5123,1 53979U 22125R   23239.78800425  .00000509  00000-0  50059-4 0  9995,2 53979  53.2167  51.1596 0001222  85.5461 274.5671 15.08841688 49769,6917.875,95.437,540.586,538.895,0.0
53979.0,STARLINK-5123,PAYLOAD,2023-08-28 15:34:44,15.08837984,0.0001194,53.2169,47.2937,83.4082,276.7046,7.0432e-05,8.33e-06,0.0,0 STARLINK-5123,1 53979U 22125R   23240.64912824  .00000833  00000-0  70432-4 0  9996,2 53979  53.2169  47.2937 0001194  83.4082 276.7046 15.08837984 49966,6917.887,95.438,540.578,538.926,0.0
53979.0,STARLINK-5123,PAYLOAD,2023-08-28 20:20:53,15.08842711,0.000122,53.2167,46.4016,86.0823,274.0308,0.00013783,1.907e-05,0.0,0 STARLINK-5123,1 53979U 22125R   23240.84784608  .00001907  00000-0  13783-3 0  9993,2 53979  53.2167  46.4016 0001220  86.0823 274.0308 15.08842711 49927,6917.872,95.437,540.581,538.893,0.0
